[{"OBJECT_NAME":"STARLINK-30494","OBJECT_ID":"2023-151G","EPOCH":"2026-03-09T08:39:06.366240","MEAN_MOTION":15.28417441,"ECCENTRICITY":0.00011553,"INCLINATION":43.0027,"RA_OF_ASC_NODE":192.4566,"ARG_OF_PERICENTER":241.5536,"MEAN_ANOMALY":118.52,"EPHEMERIS_TYPE":0,"CLASSIFICATION_TYPE":"U","NORAD_CAT_ID":57970,"ELEMENT_SET_NO":999,"REV_AT_EPOCH":13740,"BSTAR":-3.569111e-5,"MEAN_MOTION_DOT":-1.272e-5,"MEAN_MOTION_DDOT":0},{"OBJECT_NAME":"STARLINK-31532","OBJECT_ID":"2024-060B","EPOCH":"2026-03-09T19:49:20.744256","MEAN_MOTION":15.27594636,"ECCENTRICITY":0.00016281,"INCLINATION":43.0036,"RA_OF_ASC_NODE":259.092,"ARG_OF_PERICENTER":274.1104,"MEAN_ANOMALY":85.9562,"EPHEMERIS_TYPE":0,"CLASSIFICATION_TYPE":"U","NORAD_CAT_ID":59349,"ELEMENT_SET_NO":999,"REV_AT_EPOCH":11013,"BSTAR":-9.1837327e-5,"MEAN_MOTION_DOT":-2.79e-5,"MEAN_MOTION_DDOT":0}]
